[{"OBJECT_NAME":"STARLINK-32923","OBJECT_ID":"2025-037W","EPOCH":"2026-03-09T22:39:33.205248","MEAN_MOTION":14.98352474,"ECCENTRICITY":0.00028109,"INCLINATION":70.0035,"RA_OF_ASC_NODE":353.6756,"ARG_OF_PERICENTER":267.795,"MEAN_ANOMALY":92.2888,"EPHEMERIS_TYPE":0,"CLASSIFICATION_TYPE":"U","NORAD_CAT_ID":63097,"ELEMENT_SET_NO":999,"REV_AT_EPOCH":5864,"BSTAR":0.00026772695,"MEAN_MOTION_DOT":3.105e-5,"MEAN_MOTION_DDOT":0},{"OBJECT_NAME":"CZ-6A DEB","OBJECT_ID":"2022-151AM","EPOCH":"2026-03-09T19:08:00.092256","MEAN_MOTION":14.7152989,"ECCENTRICITY":0.01168946,"INCLINATION":98.7476,"RA_OF_ASC_NODE":167.8394,"ARG_OF_PERICENTER":167.6861,"MEAN_ANOMALY":192.7245,"EPHEMERIS_TYPE":0,"CLASSIFICATION_TYPE":"U","NORAD_CAT_ID":54294,"ELEMENT_SET_NO":999,"REV_AT_EPOCH":17641,"BSTAR":0.0014817554,"MEAN_MOTION_DOT":0.0001019,"MEAN_MOTION_DDOT":0}]
